start=new Date('2022-01-06T00:00:00.000Z').valueOf();
sats=[{"ELEMENT_SET_NO":"999","OBJECT_TYPE":"PAYLOAD","EPOCH":"2022-01-05T19:28:24.929760","FILE":"3265018","ECCENTRICITY":"0.00022350","GP_ID":"193283417","MEAN_MOTION_DDOT":"0.0000000000000","SEMIMAJOR_AXIS":"6925.348","DECAY_DATE":null,"TLE_LINE2":"2 45739  53.0536 197.5712 0002235  76.0567 284.0670 15.06400305 87069","TLE_LINE1":"1 45739U 20038K   22005.81139965  .00000643  00000-0  62082-4 0  9997","CLASSIFICATION_TYPE":"U","PERIOD":"95.592","COUNTRY_CODE":"US","EPHEMERIS_TYPE":"0","TIME_SYSTEM":"UTC","MEAN_ANOMALY":"284.0670","NORAD_CAT_ID":"45739","RCS_SIZE":"LARGE","PERIAPSIS":"545.665","RA_OF_ASC_NODE":"197.5712","INCLINATION":"53.0536","ARG_OF_PERICENTER":"76.0567","MEAN_MOTION":"15.06400305","APOAPSIS":"548.760","SITE":"AFETR","BSTAR":"0.00006208200000","CENTER_NAME":"EARTH","REF_FRAME":"TEME","LAUNCH_DATE":"2020-06-13","OBJECT_NAME":"STARLINK-1475","OBJECT_ID":"2020-038K","REV_AT_EPOCH":"8706","MEAN_MOTION_DOT":"0.00000643","MEAN_ELEMENT_THEORY":"SGP4"},{"TLE_LINE1":"1 45740U 20038L   22005.87038805 -.00001082  00000-0 -53782-4 0  9993","TLE_LINE2":"2 45740  53.0539 237.3177 0002099  64.4400 295.6805 15.06384499 86519","DECAY_DATE":null,"GP_ID":"193283666","SEMIMAJOR_AXIS":"6925.396","MEAN_MOTION_DDOT":"0.0000000000000","ECCENTRICITY":"0.00020990","FILE":"3265018","EPOCH":"2022-01-05T20:53:21.527520","OBJECT_TYPE":"PAYLOAD","ELEMENT_SET_NO":"999","NORAD_CAT_ID":"45740","MEAN_ANOMALY":"295.6805","TIME_SYSTEM":"UTC","EPHEMERIS_TYPE":"0","COUNTRY_CODE":"US","PERIOD":"95.593","CLASSIFICATION_TYPE":"U","REF_FRAME":"TEME","CENTER_NAME":"EARTH","BSTAR":"-0.00005378200000","SITE":"AFETR","APOAPSIS":"548.715","MEAN_MOTION":"15.06384499","ARG_OF_PERICENTER":"64.4400","INCLINATION":"53.0539","PERIAPSIS":"545.807","RA_OF_ASC_NODE":"237.3177","RCS_SIZE":"LARGE","MEAN_ELEMENT_THEORY":"SGP4","MEAN_MOTION_DOT":"-0.00001082","REV_AT_EPOCH":"8651","OBJECT_ID":"2020-038L","OBJECT_NAME":"STARLINK-1479","LAUNCH_DATE":"2020-06-13"},{"REF_FRAME":"TEME","CENTER_NAME":"EARTH","BSTAR":"0.00003274500000","APOAPSIS":"548.673","SITE":"AFETR","MEAN_MOTION":"15.06396839","ARG_OF_PERICENTER":"61.4015","INCLINATION":"53.0542","PERIAPSIS":"545.774","RA_OF_ASC_NODE":"237.1540","RCS_SIZE":"LARGE","MEAN_ELEMENT_THEORY":"SGP4","MEAN_MOTION_DOT":"0.00000206","REV_AT_EPOCH":"8653","OBJECT_ID":"2020-038M","OBJECT_NAME":"STARLINK-1480","LAUNCH_DATE":"2020-06-13","TLE_LINE1":"1 45741U 20038M   22005.90724124  .00000206  00000-0  32745-4 0  9995","TLE_LINE2":"2 45741  53.0542 237.1540 0002093  61.4015 298.7185 15.06396839 86537","DECAY_DATE":null,"SEMIMAJOR_AXIS":"6925.358","GP_ID":"193283885","MEAN_MOTION_DDOT":"0.0000000000000","FILE":"3265018","ECCENTRICITY":"0.00020930","OBJECT_TYPE":"PAYLOAD","EPOCH":"2022-01-05T21:46:25.643136","ELEMENT_SET_NO":"999","NORAD_CAT_ID":"45741","MEAN_ANOMALY":"298.7185","TIME_SYSTEM":"UTC","EPHEMERIS_TYPE":"0","COUNTRY_CODE":"US","PERIOD":"95.592","CLASSIFICATION_TYPE":"U"},{"REF_FRAME":"TEME","CENTER_NAME":"EARTH","BSTAR":"0.00007439100000","SITE":"AFETR","APOAPSIS":"548.620","ARG_OF_PERICENTER":"61.9096","MEAN_MOTION":"15.06398470","RA_OF_ASC_NODE":"237.1746","PERIAPSIS":"545.817","INCLINATION":"53.0535","RCS_SIZE":"LARGE","MEAN_ELEMENT_THEORY":"SGP4","REV_AT_EPOCH":"8651","MEAN_MOTION_DOT":"0.00000826","OBJECT_NAME":"STARLINK-1481","OBJECT_ID":"2020-038N","LAUNCH_DATE":"2020-06-13","TLE_LINE1":"1 45742U 20038N   22005.89986197  .00000826  00000-0  74391-4 0  9995","DECAY_DATE":null,"TLE_LINE2":"2 45742  53.0535 237.1746 0002024  61.9096 298.2097 15.06398470 86514","GP_ID":"193282668","SEMIMAJOR_AXIS":"6925.353","MEAN_MOTION_DDOT":"0.0000000000000","ECCENTRICITY":"0.00020240","FILE":"3265018","EPOCH":"2022-01-05T21:35:48.074208","OBJECT_TYPE":"PAYLOAD","ELEMENT_SET_NO":"999","MEAN_ANOMALY":"298.2097","NORAD_CAT_ID":"45742","TIME_SYSTEM":"UTC","EPHEMERIS_TYPE":"0","PERIOD":"95.592","COUNTRY_CODE":"US","CLASSIFICATION_TYPE":"U"},{"COUNTRY_CODE":"US","PERIOD":"95.593","EPHEMERIS_TYPE":"0","CLASSIFICATION_TYPE":"U","TIME_SYSTEM":"UTC","NORAD_CAT_ID":"45743","MEAN_ANOMALY":"299.6014","EPOCH":"2022-01-05T20:41:23.043264","OBJECT_TYPE":"PAYLOAD","ECCENTRICITY":"0.00021620","FILE":"3265018","ELEMENT_SET_NO":"999","TLE_LINE1":"1 45743U 20038P   22005.86207226 -.00001130  00000-0 -56969-4 0  9994","SEMIMAJOR_AXIS":"6925.375","GP_ID":"193282918","MEAN_MOTION_DDOT":"0.0000000000000","TLE_LINE2":"2 45743  53.0542 237.3018 0002162  60.5191 299.6014 15.06391214 86514","DECAY_DATE":null,"OBJECT_ID":"2020-038P","OBJECT_NAME":"STARLINK-1483","LAUNCH_DATE":"2020-06-13","MEAN_ELEMENT_THEORY":"SGP4","MEAN_MOTION_DOT":"-0.00001130","REV_AT_EPOCH":"8651","MEAN_MOTION":"15.06391214","ARG_OF_PERICENTER":"60.5191","APOAPSIS":"548.738","SITE":"AFETR","RCS_SIZE":"LARGE","INCLINATION":"53.0542","RA_OF_ASC_NODE":"237.3018","PERIAPSIS":"545.743","CENTER_NAME":"EARTH","REF_FRAME":"TEME","BSTAR":"-0.00005696900000"},{"BSTAR":"0.00009454100000","REF_FRAME":"TEME","CENTER_NAME":"EARTH","PERIAPSIS":"545.800","RA_OF_ASC_NODE":"237.2330","INCLINATION":"53.0523","RCS_SIZE":"LARGE","SITE":"AFETR","APOAPSIS":"548.633","ARG_OF_PERICENTER":"64.3989","MEAN_MOTION":"15.06399056","REV_AT_EPOCH":"8652","MEAN_MOTION_DOT":"0.00001127","MEAN_ELEMENT_THEORY":"SGP4","LAUNCH_DATE":"2020-06-13","OBJECT_NAME":"STARLINK-1500","OBJECT_ID":"2020-038Q","DECAY_DATE":null,"TLE_LINE2":"2 45744  53.0523 237.2330 0002045  64.3989 295.7211 15.06399056 86526","GP_ID":"193284166","SEMIMAJOR_AXIS":"6925.351","MEAN_MOTION_DDOT":"0.0000000000000","TLE_LINE1":"1 45744U 20038Q   22005.88880237  .00001127  00000-0  94541-4 0  9998","ELEMENT_SET_NO":"999","FILE":"3265018","ECCENTRICITY":"0.00020450","OBJECT_TYPE":"PAYLOAD","EPOCH":"2022-01-05T21:19:52.524768","MEAN_ANOMALY":"295.7211","NORAD_CAT_ID":"45744","TIME_SYSTEM":"UTC","CLASSIFICATION_TYPE":"U","EPHEMERIS_TYPE":"0","PERIOD":"95.592","COUNTRY_CODE":"US"},{"REF_FRAME":"TEME","CENTER_NAME":"EARTH","BSTAR":"0.00003519000000","APOAPSIS":"548.679","SITE":"AFETR","ARG_OF_PERICENTER":"62.6400","MEAN_MOTION":"15.06396945","PERIAPSIS":"545.767","RA_OF_ASC_NODE":"237.2858","INCLINATION":"53.0533","RCS_SIZE":"LARGE","MEAN_ELEMENT_THEORY":"SGP4","REV_AT_EPOCH":"8651","MEAN_MOTION_DOT":"0.00000242","OBJECT_NAME":"STARLINK-1503","OBJECT_ID":"2020-038R","LAUNCH_DATE":"2020-06-13","TLE_LINE1":"1 45745U 20038R   22005.87775500  .00000242  00000-0  35190-4 0  9996","DECAY_DATE":null,"TLE_LINE2":"2 45745  53.0533 237.2858 0002102  62.6400 297.4802 15.06396945 86514","SEMIMAJOR_AXIS":"6925.358","GP_ID":"193284385","MEAN_MOTION_DDOT":"0.0000000000000","FILE":"3265018","ECCENTRICITY":"0.00021020","EPOCH":"2022-01-05T21:03:58.032000","OBJECT_TYPE":"PAYLOAD","ELEMENT_SET_NO":"999","MEAN_ANOMALY":"297.4802","NORAD_CAT_ID":"45745","TIME_SYSTEM":"UTC","EPHEMERIS_TYPE":"0","PERIOD":"95.592","COUNTRY_CODE":"US","CLASSIFICATION_TYPE":"U"},{"MEAN_MOTION":"15.06389845","ARG_OF_PERICENTER":"71.4754","SITE":"AFETR","APOAPSIS":"548.402","RCS_SIZE":"LARGE","INCLINATION":"53.0521","RA_OF_ASC_NODE":"237.2081","PERIAPSIS":"546.087","CENTER_NAME":"EARTH","REF_FRAME":"TEME","BSTAR":"-0.00004303600000","OBJECT_ID":"2020-038S","OBJECT_NAME":"STARLINK-1504","LAUNCH_DATE":"2020-06-13","MEAN_ELEMENT_THEORY":"SGP4","MEAN_MOTION_DOT":"-0.00000922","REV_AT_EPOCH":"8651","EPOCH":"2022-01-05T21:25:12.493344","OBJECT_TYPE":"PAYLOAD","ECCENTRICITY":"0.00016710","FILE":"3265018","ELEMENT_SET_NO":"999","TLE_LINE1":"1 45746U 20038S   22005.89250571 -.00000922  00000-0 -43036-4 0  9990","GP_ID":"193283168","SEMIMAJOR_AXIS":"6925.380","MEAN_MOTION_DDOT":"0.0000000000000","TLE_LINE2":"2 45746  53.0521 237.2081 0001671  71.4754 288.6416 15.06389845 86514","DECAY_DATE":null,"COUNTRY_CODE":"US","PERIOD":"95.593","EPHEMERIS_TYPE":"0","CLASSIFICATION_TYPE":"U","TIME_SYSTEM":"UTC","NORAD_CAT_ID":"45746","MEAN_ANOMALY":"288.6416"},{"TLE_LINE2":"2 45747  53.0535 237.1952 0002122  57.9720 302.1475 15.06392932 86529","DECAY_DATE":null,"GP_ID":"193283418","SEMIMAJOR_AXIS":"6925.370","MEAN_MOTION_DDOT":"0.0000000000000","TLE_LINE1":"1 45747U 20038T   22005.89618755 -.00001283  00000-0 -67211-4 0  9995","ELEMENT_SET_NO":"999","FILE":"3265018","ECCENTRICITY":"0.00021220","EPOCH":"2022-01-05T21:30:30.604320","OBJECT_TYPE":"PAYLOAD","NORAD_CAT_ID":"45747","MEAN_ANOMALY":"302.1475","TIME_SYSTEM":"UTC","CLASSIFICATION_TYPE":"U","EPHEMERIS_TYPE":"0","COUNTRY_CODE":"US","PERIOD":"95.593","BSTAR":"-0.00006721100000","REF_FRAME":"TEME","CENTER_NAME":"EARTH","INCLINATION":"53.0535","RA_OF_ASC_NODE":"237.1952","PERIAPSIS":"545.766","RCS_SIZE":"LARGE","APOAPSIS":"548.705","SITE":"AFETR","MEAN_MOTION":"15.06392932","ARG_OF_PERICENTER":"57.9720","MEAN_MOTION_DOT":"-0.00001283","REV_AT_EPOCH":"8652","MEAN_ELEMENT_THEORY":"SGP4","LAUNCH_DATE":"2020-06-13","OBJECT_ID":"2020-038T","OBJECT_NAME":"STARLINK-1506"},{"REF_FRAME":"TEME","CENTER_NAME":"EARTH","BSTAR":"-0.00003740200000","APOAPSIS":"548.580","SITE":"AFETR","MEAN_MOTION":"15.06391524","ARG_OF_PERICENTER":"64.2835","INCLINATION":"53.0509","RA_OF_ASC_NODE":"237.2731","PERIAPSIS":"545.899","RCS_SIZE":"LARGE","MEAN_ELEMENT_THEORY":"SGP4","MEAN_MOTION_DOT":"-0.00000839","REV_AT_EPOCH":"8651","OBJECT_ID":"2020-038U","OBJECT_NAME":"STARLINK-1507","LAUNCH_DATE":"2020-06-13","TLE_LINE1":"1 45748U 20038U   22005.88418303 -.00000839  00000-0 -37402-4 0  9997","TLE_LINE2":"2 45748  53.0509 237.2731 0001935  64.2835 295.8354 15.06391524 86515","DECAY_DATE":null,"GP_ID":"193283667","SEMIMAJOR_AXIS":"6925.375","MEAN_MOTION_DDOT":"0.0000000000000","ECCENTRICITY":"0.00019350","FILE":"3265018","OBJECT_TYPE":"PAYLOAD","EPOCH":"2022-01-05T21:13:13.413792","ELEMENT_SET_NO":"999","NORAD_CAT_ID":"45748","MEAN_ANOMALY":"295.8354","TIME_SYSTEM":"UTC","EPHEMERIS_TYPE":"0","COUNTRY_CODE":"US","PERIOD":"95.593","CLASSIFICATION_TYPE":"U"}];
